{"version": 0.6, "generator": "Overpass API 0.7.62.7 375dc00a", "osm3s": {"timestamp_osm_base": "2025-07-13T02:52:58Z", "copyright": "The data included in this document is from www.openstreetmap.org. The data is made available under ODbL."}, "elements": [{"type": "node", "id": 440842906, "lat": 47.5606819, "lon": -122.3848038, "tags": {"addr:city": "Seattle", "addr:housenumber": "4706", "addr:postcode": "98116", "addr:state": "WA", "addr:street": "42nd Avenue Southwest", "amenity": "pharmacy", "brand": "Bartell Drugs", "brand:wikidata": "Q4865152", "dispensing": "yes", "healthcare": "pharmacy", "name": "Bartell Drugs"}}, {"type": "node", "id": 735982293, "lat": 47.690509, "lon": -122.37442, "tags": {"addr:city": "Seattle", "addr:full": "1407 Northwest 85th Street, Seattle, WA 98117-4295", "addr:housenumber": "1407", "addr:postcode": "98117", "addr:street": "Northwest 85th Street", "amenity": "pharmacy", "check_date": "2025-01-22", "healthcare": "pharmacy", "name": "Bob Johnson's Pharmacy", "opening_hours": "Mo-Fr 09:00-18:00; Sa-Su 09:00-15:00", "phone": "+1-206-782-5822", "source": "King County GIS;data.seattle.gov", "website": "https://www.bobjohnsonspharmacy.com/"}}, {"type": "node", "id": 735984176, "lat": 47.668402, "lon": -122.376734}, {"type": "node", "id": 1040913003, "lat": 47.6909923, "lon": -122.376474}, {"type": "node", "id": 1040913017, "lat": 47.690975, "lon": -122.376474}, {"type": "node", "id": 1040913021, "lat": 47.6907228, "lon": -122.3765949}, {"type": "node", "id": 1040913036, "lat": 47.6909903, "lon": -122.3573135, "tags": {"amenity": "pharmacy", "brand": "Bartell Drugs", "brand:wikidata": "Q4865152", "check_date": "2025-04-03", "dispensing": "yes", "drive_through": "no", "healthcare": "pharmacy", "name": "Bartell Drugs", "opening_hours": "Mo-Fr 08:00-13:30,14:00-20:00; Sa 09:00-13:30,14:00-18:00; Su 10:00-13:30,14:00-18:00", "payment:mastercard": "yes", "payment:visa": "yes", "source": "bing", "wheelchair": "yes"}}, {"type": "node", "id": 1040913039, "lat": 47.6907399, "lon": -122.3766196}, {"type": "node", "id": 1040913058, "lat": 47.6909744, "lon": -122.3765389}, {"type": "node", "id": 1040913062, "lat": 47.6909743, "lon": -122.3766234}, {"type": "node", "id": 1040913076, "lat": 47.690992, "lon": -122.3765393}, {"type": "node", "id": 1040913081, "lat": 47.6907235, "lon": -122.3762606}, {"type": "node", "id": 1040913129, "lat": 47.690735, "lon": -122.3761672}, {"type": "node", "id": 1040913132, "lat": 47.6909749, "lon": -122.3760867}, {"type": "node", "id": 1040913154, "lat": 47.6907347, "lon": -122.3762606}, {"type": "node", "id": 1040913159, "lat": 47.6907928, "lon": -122.3760825}, {"type": "node", "id": 1078239627, "lat": 47.6611858, "lon": -122.33763, "tags": {"amenity": "pharmacy", "dispensing": "yes", "healthcare": "pharmacy", "name": "Neighborcare Health Pharmacy", "opening_hours": "Mo,Tu,Th,Fr 09:00-17:30; We 09:30-17:30", "source": "bing;knowledge"}}, {"type": "node", "id": 1177562504, "lat": 47.5820838, "lon": -122.3855171, "tags": {"amenity": "pharmacy", "brand": "Bartell Drugs", "brand:wikidata": "Q4865152", "healthcare": "pharmacy", "name": "Bartell Drugs"}}, {"type": "node", "id": 1564279953, "lat": 47.6906069, "lon": -122.2901737, "tags": {"amenity": "pharmacy", "brand": "Rite Aid", "brand:wikidata": "Q3433273", "check_date": "2024-09-28", "check_date:opening_hours": "2024-09-28", "healthcare": "pharmacy", "name": "Rite Aid", "opening_hours": "Mo-Fr 09:00-21:00; Sa 09:00-18:00; Su 10:00-18:00", "website": "https://www.riteaid.com/locations/wa/seattle/8500-35th-avenue-ne.html", "wheelchair": "yes"}}, {"type": "node", "id": 1692507496, "lat": 47.6680537, "lon": -122.3770562}, {"type": "node", "id": 1692507499, "lat": 47.6680518, "lon": -122.3766849}, {"type": "node", "id": 1692507510, "lat": 47.6684028, "lon": -122.3770539}, {"type": "node", "id": 1730821346, "lat": 47.5814483, "lon": -122.3014691}, {"type": "node", "id": 1730821355, "lat": 47.5814368, "lon": -122.3009274}, {"type": "node", "id": 1730821358, "lat": 47.5814618, "lon": -122.3013357}, {"type": "node", "id": 1730821365, "lat": 47.5815192, "lon": -122.3007986}, {"type": "node", "id": 1730821379, "lat": 47.5816341, "lon": -122.3008412}, {"type": "node", "id": 1730821382, "lat": 47.581759, "lon": -122.300937}, {"type": "node", "id": 1730821401, "lat": 47.5817619, "lon": -122.3015219}, {"type": "node", "id": 1750019221, "lat": 47.5215677, "lon": -122.3648342}, {"type": "node", "id": 2019295589, "lat": 47.5226271, "lon": -122.2693151, "tags": {"amenity": "pharmacy", "brand": "Rite Aid", "brand:wikidata": "Q3433273", "check_date": "2024-06-19", "dispensing": "yes", "healthcare": "pharmacy", "name": "Rite Aid", "website": "https://www.riteaid.com/locations/wa/seattle/9000-rainier-avenue-s.html"}}, {"type": "node", "id": 2077249384, "lat": 47.6150832, "lon": -122.3210596, "tags": {"addr:city": "Seattle", "addr:country": "US", "addr:housenumber": "1531", "addr:postcode": "98122", "addr:state": "WA", "addr:street": "Broadway", "amenity": "pharmacy", "brand": "Walgreens", "brand:wikidata": "Q1591889", "check_date": "2025-05-28", "healthcare": "pharmacy", "name": "Walgreens"}}, {"type": "node", "id": 2138369008, "lat": 47.6683697, "lon": -122.3766822}, {"type": "node", "id": 2143279407, "lat": 47.6188373, "lon": -122.345513, "tags": {"amenity": "pharmacy", "brand": "Walgreens", "brand:wikidata": "Q1591889", "dispensing": "yes", "healthcare": "pharmacy", "name": "Walgreens"}}, {"type": "node", "id": 2158750356, "lat": 47.6133049, "lon": -122.3183717, "tags": {"addr:city": "Seattle", "addr:housenumber": "1409", "addr:postcode": "98122", "addr:street": "11th Avenue", "amenity": "pharmacy", "brand": "Walgreens", "brand:wikidata": "Q1591889", "check_date": "2024-03-23", "healthcare": "pharmacy", "name": "Walgreens", "opening_hours": "07:00-19:00", "operator": "Walgreens", "source": "King County GIS"}}, {"type": "node", "id": 2159323084, "lat": 47.6060683, "lon": -122.327922, "tags": {"addr:city": "Seattle", "addr:housenumber": "703", "addr:postcode": "98104", "addr:state": "WA", "addr:street": "Columbia Street", "amenity": "pharmacy", "dispensing": "yes", "healthcare": "pharmacy", "name": "Chesterfield Services", "source": "King County GIS"}}, {"type": "node", "id": 2329620376, "lat": 47.6355261, "lon": -122.27871, "tags": {"addr:city": "Seattle", "addr:housenumber": "4130", "addr:postcode": "98112", "addr:street": "East Madison Street", "amenity": "pharmacy", "contact:email": "email@mppwc.com", "contact:facebook": "https://facebook.com/MadisonParkPharmacy", "contact:instagram": "https://instagram.com/mppharmacyandwellness", "contact:website": "https://madisonparkpharmacy.com", "dispensing": "yes", "dog": "yes", "healthcare": "pharmacy", "name": "Madison Park Pharmacy & Wellness Center", "opening_hours": "Mo-Fr 09:00-18:00; Sa 10:00-18:00; Su 11:00-16:00", "phone": "+1-206-347-4644", "shop": "chemist", "source": "King County GIS;data.seattle.gov"}}, {"type": "node", "id": 2373664256, "lat": 47.5814227, "lon": -122.3009069}, {"type": "node", "id": 2373664259, "lat": 47.581428, "lon": -122.300939}, {"type": "node", "id": 2373664264, "lat": 47.5814402, "lon": -122.3009577}, {"type": "node", "id": 2373664269, "lat": 47.581448, "lon": -122.3013979}, {"type": "node", "id": 2373664270, "lat": 47.5814488, "lon": -122.3009576}, {"type": "node", "id": 2373664271, "lat": 47.5814494, "lon": -122.3010864}, {"type": "node", "id": 2373664275, "lat": 47.5814605, "lon": -122.3010863}, {"type": "node", "id": 2373664311, "lat": 47.5815164, "lon": -122.3007936}, {"type": "node", "id": 2373664314, "lat": 47.5815238, "lon": -122.3007986}, {"type": "node", "id": 2373664319, "lat": 47.5815367, "lon": -122.3008167}, {"type": "node", "id": 2373664320, "lat": 47.5815367, "lon": -122.3008235}, {"type": "node", "id": 2373664329, "lat": 47.581555, "lon": -122.301468}, {"type": "node", "id": 2373664330, "lat": 47.5815553, "lon": -122.3015241}, {"type": "node", "id": 2373664347, "lat": 47.5816003, "lon": -122.3008228}, {"type": "node", "id": 2373664348, "lat": 47.5816004, "lon": -122.3008415}, {"type": "node", "id": 2374210545, "lat": 47.5838144, "lon": -122.3019496}, {"type": "node", "id": 2374210546, "lat": 47.5838145, "lon": -122.3021546}, {"type": "node", "id": 2374210605, "lat": 47.5840935, "lon": -122.3020378}, {"type": "node", "id": 2374210606, "lat": 47.5840936, "lon": -122.3021546}, {"type": "node", "id": 2374210607, "lat": 47.5840933, "lon": -122.3019476}, {"type": "node", "id": 2374210608, "lat": 47.5840933, "lon": -122.3019617}, {"type": "node", "id": 2374210619, "lat": 47.5841122, "lon": -122.301962}, {"type": "node", "id": 2374210620, "lat": 47.5841123, "lon": -122.3020384}, {"type": "node", "id": 2396689580, "lat": 47.5554719, "lon": -122.3875634}, {"type": "node", "id": 2396689581, "lat": 47.5554735, "lon": -122.3877061}, {"type": "node", "id": 2396689588, "lat": 47.5554971, "lon": -122.387334}, {"type": "node", "id": 2396689589, "lat": 47.5554997, "lon": -122.3875627}, {"type": "node", "id": 2396689594, "lat": 47.5555351, "lon": -122.3873019}, {"type": "node", "id": 2396689595, "lat": 47.5555355, "lon": -122.387333}, {"type": "node", "id": 2396689653, "lat": 47.5557735, "lon": -122.387296}, {"type": "node", "id": 2396689654, "lat": 47.5557738, "lon": -122.3873242}, {"type": "node", "id": 2396689695, "lat": 47.5559162, "lon": -122.3873206}, {"type": "node", "id": 2396689698, "lat": 47.5559184, "lon": -122.3875075}, {"type": "node", "id": 2396689716, "lat": 47.5559703, "lon": -122.3875062}, {"type": "node", "id": 2396689717, "lat": 47.5559725, "lon": -122.3876937}, {"type": "node", "id": 2400949029, "lat": 47.6244761, "lon": -122.3568745, "tags": {"addr:city": "Seattle", "addr:housenumber": "531", "addr:postcode": "98109", "addr:state": "WA", "addr:street": "Queen Anne Avenue North", "amenity": "pharmacy", "brand": "CVS Pharmacy", "brand:website": "https://www.cvs.com/", "brand:wikidata": "Q2078880", "brand:wikipedia": "en:CVS Pharmacy", "healthcare": "pharmacy", "name": "CVS Pharmacy", "note": "Rx Hours: Mo-Fri 8am-8pm Sat 9am-6pm Sun 10am-6pm", "opening_hours": "Mo-Su 07:00-22:00", "short_name": "CVS", "source": "local knowledge", "website": "https://www.cvs.com/store-locator/seattle-wa-pharmacies/531-queen-anne-avenue-north-seattle-wa-98109/storeid=10331", "wheelchair": "yes"}}, {"type": "node", "id": 2404247474, "lat": 47.6097823, "lon": -122.3381513, "tags": {"addr:city": "Seattle", "addr:housenumber": "222", "addr:postcode": "98101", "addr:state": "WA", "addr:street": "Pike Street", "amenity": "pharmacy", "brand": "Walgreens", "brand:wikidata": "Q1591889", "drive_through": "no", "healthcare": "pharmacy", "name": "Walgreens", "opening_hours": "Mo-Fr 07:00-20:00; Sa 07:00-20:00; Su 07:00-20:00", "phone": "+1-206-903-8392", "source": "King County GIS;data.seattle.gov", "website": "https://www.walgreens.com/"}}, {"type": "node", "id": 2434520655, "lat": 47.5993482, "lon": -122.3252527, "tags": {"addr:city": "Seattle", "addr:housenumber": "626", "addr:postcode": "98104", "addr:state": "WA", "addr:street": "South Jackson Street", "amenity": "pharmacy", "healthcare": "pharmacy", "name": "Ho's Herb & Massage", "source": "King County GIS;data.seattle.gov"}}, {"type": "node", "id": 2434531545, "lat": 47.5973047, "lon": -122.3252631, "tags": {"addr:city": "Seattle", "addr:housenumber": "611", "addr:postcode": "98104", "addr:state": "WA", "addr:street": "Maynard Avenue South", "amenity": "pharmacy", "healthcare": "pharmacy", "name": "Luke's Pharmacy", "source": "King County GIS;data.seattle.gov"}}, {"type": "node", "id": 2447312101, "lat": 47.5212223, "lon": -122.3648337}, {"type": "node", "id": 2447312102, "lat": 47.5212256, "lon": -122.3652762}, {"type": "node", "id": 2447312117, "lat": 47.5212643, "lon": -122.3653344}, {"type": "node", "id": 2447312167, "lat": 47.5215677, "lon": -122.3648188}, {"type": "node", "id": 2447312171, "lat": 47.521585, "lon": -122.3648187}, {"type": "node", "id": 2447312172, "lat": 47.5215851, "lon": -122.3648339}, {"type": "node", "id": 2447312173, "lat": 47.5216061, "lon": -122.3648341}, {"type": "node", "id": 2447312176, "lat": 47.5216074, "lon": -122.3653311}, {"type": "node", "id": 2462353510, "lat": 47.6408414, "lon": -122.3981635, "tags": {"addr:city": "Seattle", "addr:housenumber": "2438", "addr:postcode": "98199", "addr:street": "32nd Avenue West", "amenity": "pharmacy", "brand": "CVS Pharmacy", "brand:website": "https://www.cvs.com/", "brand:wikidata": "Q2078880", "brand:wikipedia": "en:CVS Pharmacy", "drive_through": "no", "healthcare": "pharmacy", "name": "CVS Pharmacy", "short_name": "CVS", "source": "King County GIS;data.seattle.gov", "website": "https://www.cvs.com/store-locator/cvs-pharmacy-address/2438+32nd+Ave+West-Seattle-WA-98199/storeid=10794"}}, {"type": "node", "id": 2463138879, "lat": 47.6798143, "lon": -122.323656, "tags": {"addr:city": "Seattle", "addr:housenumber": "419", "addr:postcode": "98115", "addr:street": "Northeast 71st Street", "amenity": "pharmacy", "brand": "Bartell Drugs", "brand:wikidata": "Q4865152", "healthcare": "pharmacy", "name": "Bartell Drugs", "opening_hours": "Mo-Fr 09:00-21:00; Sa 09:00-18:00; Su 10:00-18:00", "source": "King County GIS;data.seattle.gov"}}, {"type": "node", "id": 2464020857, "lat": 47.6682221, "lon": -122.277205, "tags": {"addr:city": "Seattle", "addr:housenumber": "5400", "addr:postcode": "98105", "addr:street": "Sand Point Way Northeast", "amenity": "pharmacy", "drive_through": "no", "healthcare": "pharmacy", "name": "Katterman\u2019s Sand Point Pharmacy", "opening_hours": "Mo-Fr 09:00-18:00; Sa 10:00-17:00", "source": "King County GIS;data.seattle.gov", "website": "https://www.kattermans.com/"}}, {"type": "node", "id": 4139214490, "lat": 47.6817136, "lon": -122.3168826, "tags": {"amenity": "pharmacy", "brand": "Safeway", "brand:wikidata": "Q1508234", "dispensing": "yes", "healthcare": "pharmacy", "name": "Safeway", "opening_hours": "Mo-Fr 09:00-21:00; Sa 09:00-18:00; Su 11:00-18:00", "phone": "+1-206-524-1649", "website": "https://local.pharmacy.safeway.com/safeway/wa/seattle/7300-roosevelt-way-ne.html", "wheelchair": "yes"}}, {"type": "node", "id": 4384546290, "lat": 47.5453786, "lon": -122.3859922, "tags": {"amenity": "pharmacy", "healthcare": "pharmacy", "name": "Super Supplements", "name:en": "Super Supplements"}}, {"type": "node", "id": 4881646306, "lat": 47.5455189, "lon": -122.376157, "tags": {"amenity": "pharmacy", "brand": "Walgreens", "brand:wikidata": "Q1591889", "healthcare": "pharmacy", "name": "Walgreens", "opening_hours": "Mo-Su 08:00-22:00", "phone": "+1-206-938-2759", "website": "https://www.walgreens.com/locator/walgreens-6330+35th+ave+sw-seattle-wa-98126/id=4898"}}, {"type": "node", "id": 5659271126, "lat": 47.5838145, "lon": -122.3020524, "tags": {"entrance": "main"}}, {"type": "node", "id": 5695432142, "lat": 47.5385077, "lon": -122.2822649, "tags": {"amenity": "pharmacy", "dispensing": "yes", "healthcare": "pharmacy", "level": "0", "name": "King Plaza Pharmacy"}}, {"type": "node", "id": 5852813725, "lat": 47.6683877, "lon": -122.376711, "tags": {"entrance": "main"}}, {"type": "node", "id": 6125856429, "lat": 47.5369206, "lon": -122.2801074, "tags": {"addr:city": "Seattle", "addr:housenumber": "4219", "addr:postcode": "98118", "addr:state": "WA", "addr:street": "South Othello Street", "addr:unit": "105F", "amenity": "pharmacy", "check_date:opening_hours": "2023-07-23", "dispensing": "yes", "drive_through": "no", "healthcare": "pharmacy", "name": "Othello Station Pharmacy", "opening_hours": "Mo-Fr 09:00-19:00; Sa 10:00-16:00", "payment:credit_cards": "yes", "payment:debit_cards": "yes", "phone": "+1-206-620-2400", "website": "https://stores.healthmart.com/OTHELLOSTATIONPHARMACY/stores.aspx"}}, {"type": "node", "id": 6287188160, "lat": 47.6619501, "lon": -122.2967044, "tags": {"amenity": "pharmacy", "dispensing": "yes", "healthcare": "pharmacy", "name": "QFC Pharmacy #807", "opening_hours": "Mo-Fr 08:00-21:00; Sa 09:00-21:00; Su 10:00-18:00", "waste": "drugs"}}, {"type": "node", "id": 6579694798, "lat": 47.6090681, "lon": -122.3254802, "tags": {"amenity": "pharmacy", "brand": "CVS Pharmacy", "brand:website": "https://www.cvs.com/", "brand:wikidata": "Q2078880", "brand:wikipedia": "en:CVS Pharmacy", "healthcare": "pharmacy", "name": "CVS Pharmacy", "short_name": "CVS"}}, {"type": "node", "id": 6618467638, "lat": 47.6236171, "lon": -122.3124265, "tags": {"amenity": "pharmacy", "brand": "Walgreens", "brand:wikidata": "Q1591889", "dispensing": "yes", "healthcare": "pharmacy", "name": "Walgreens"}}, {"type": "node", "id": 7204418556, "lat": 47.5211913, "lon": -122.2683558, "tags": {"amenity": "pharmacy", "brand": "Safeway", "brand:wikidata": "Q1508234", "dispensing": "yes", "healthcare": "pharmacy", "name": "Safeway", "opening_hours": "Mo-Fr 09:00-20:00; Sa 10:00-18:00; Su 10:00-17:00", "website": "https://local.pharmacy.safeway.com/safeway/wa/seattle/9262-rainier-ave-s.html"}}, {"type": "node", "id": 7229366921, "lat": 47.6611576, "lon": -122.3358452, "tags": {"addr:housenumber": "1815", "addr:postcode": "98103", "addr:street": "North 45th Street", "addr:unit": "110", "amenity": "pharmacy", "check_date": "2024-11-26", "contact:facebook": "cascadiapharmacy", "contact:instagram": "cascadiapharmacy", "level": "0", "name": "Cascadia Pharmacy", "opening_hours": "Mo-Fr 09:00-18:00; Sa 10:00-17:00", "phone": "+1-206-385-6552", "website": "https://cascadiapharmacy.com/"}}, {"type": "node", "id": 8347668705, "lat": 47.563502, "lon": -122.2873424, "tags": {"amenity": "pharmacy", "brand": "Walgreens", "brand:wikidata": "Q1591889", "dispensing": "yes", "healthcare": "pharmacy", "name": "Walgreens"}}, {"type": "node", "id": 8416045902, "lat": 47.599699, "lon": -122.3008355, "tags": {"amenity": "pharmacy", "brand": "Walgreens", "brand:wikidata": "Q1591889", "check_date": "2025-01-15", "dispensing": "yes", "healthcare": "pharmacy", "name": "Walgreens"}}, {"type": "node", "id": 8481564663, "lat": 47.5179738, "lon": -122.3548302, "tags": {"amenity": "pharmacy", "brand": "Walgreens", "brand:wikidata": "Q1591889", "dispensing": "yes", "drive_through": "yes", "healthcare": "pharmacy", "name": "Walgreens", "opening_hours": "Mo-Fr 09:00-19:00; Sa-Su 10:00-18:00", "phone": "+1-206-938-2759", "website": "https://www.walgreens.com/locator/walgreens-6330+35th+ave+sw-seattle-wa-98126/id=4898"}}, {"type": "node", "id": 9030929077, "lat": 47.6616813, "lon": -122.3332372, "tags": {"amenity": "pharmacy", "brand": "CVS Pharmacy", "brand:website": "https://www.cvs.com/", "brand:wikidata": "Q2078880", "brand:wikipedia": "en:CVS Pharmacy", "dispensing": "yes", "healthcare": "pharmacy", "name": "CVS Pharmacy", "short_name": "CVS", "website": "https://www.cvs.com/store-locator/seattle-wa-pharmacies/2100-north-45th-street-seattle-wa-98103/storeid=10387"}}, {"type": "node", "id": 9112066082, "lat": 47.5245122, "lon": -122.3147482, "tags": {"amenity": "pharmacy", "healthcare": "pharmacy", "name": "Sea-Mar Pharmacy"}}, {"type": "node", "id": 9547938796, "lat": 47.6085844, "lon": -122.3388898, "tags": {"addr:city": "Seattle", "addr:housenumber": "1401", "addr:postcode": "98101", "addr:state": "WA", "addr:street": "2nd Avenue", "amenity": "pharmacy", "brand": "CVS Pharmacy", "brand:website": "https://www.cvs.com/", "brand:wikidata": "Q2078880", "brand:wikipedia": "en:CVS Pharmacy", "dispensing": "yes", "healthcare": "pharmacy", "name": "CVS Pharmacy", "phone": "+1-206-494-3251", "short_name": "CVS", "website": "https://www.cvs.com/store-locator/seattle-wa-pharmacies/1401-2nd-ave-seattle-wa-98101/storeid=17637"}}, {"type": "node", "id": 9845736258, "lat": 47.6368934, "lon": -122.3571394, "tags": {"addr:city": "Seattle", "addr:housenumber": "1929", "addr:postcode": "98109", "addr:state": "WA", "addr:street": "Queen Anne Avenue North", "amenity": "pharmacy", "brand": "Bartell Drugs", "brand:wikidata": "Q4865152", "check_date": "2024-05-08", "dispensing": "yes", "drive_through": "no", "healthcare": "pharmacy", "name": "Bartell Drugs", "operator": "Bartell Drugs", "shop": "chemist", "source": "data.seattle.gov", "website": "https://www.bartelldrugs.com/store/upper-queen-anne/"}}, {"type": "node", "id": 9923569717, "lat": 47.6151548, "lon": -122.351772, "tags": {"amenity": "pharmacy", "healthcare": "pharmacy", "name": "Oriental Medicine"}}, {"type": "node", "id": 10241411411, "lat": 47.6917167, "lon": -122.358302, "tags": {"amenity": "pharmacy", "brand": "Fred Meyer", "brand:wikidata": "Q5495932", "healthcare": "pharmacy", "name": "Fred Meyer Pharmacy", "wheelchair": "yes"}}, {"type": "node", "id": 10958541777, "lat": 47.6146415, "lon": -122.339204, "tags": {"amenity": "pharmacy", "check_date": "2023-06-05", "healthcare": "pharmacy", "name": "Capsule", "opening_hours": "Mo-Fr 09:00-17:00"}}, {"type": "node", "id": 11242669966, "lat": 47.702241, "lon": -122.3635561, "tags": {"addr:housenumber": "9999", "addr:street": "Holman Road Northwest", "amenity": "pharmacy", "check_date": "2023-10-05", "healthcare": "pharmacy", "name": "QFC pharmacy", "opening_hours": "Mo-Fr 09:00-13:00,13:30-20:00; Sa 09:00-13:00,13:30-18:00; Su 11:00-13:00,13:30-18:00", "wheelchair": "yes"}}, {"type": "node", "id": 11698984711, "lat": 47.7092659, "lon": -122.3175985, "tags": {"amenity": "pharmacy", "check_date": "2025-01-03", "contact:phone": "+1-206-361-0188", "dispensing": "yes", "drive_through": "no", "healthcare": "pharmacy", "lgbtq": "welcome", "name": "QFC Pharmacy", "opening_hours": "Mo-Fr 09:00-13:00,13:30-20:00; Sa 09:00-13:00,13:30-18:00; Su 11:00-13:00,13:30-18:00"}}, {"type": "node", "id": 11762103461, "lat": 47.7081711, "lon": -122.3181043, "tags": {"addr:city": "Seattle", "addr:country": "US", "addr:housenumber": "859", "addr:postcode": "98125", "addr:state": "WA", "addr:street": "Northeast Northgate Way", "amenity": "pharmacy", "brand": "Walgreens", "brand:wikidata": "Q1591889", "check_date": "2025-01-17", "contact:phone": "+1-206-417-0520", "contact:website": "https://www.walgreens.com/locator/walgreens-859+ne+northgate+way-seattle-wa-98125/id=4157", "dispensing": "yes", "drive_through": "no", "healthcare": "pharmacy", "name": "Walgreens", "opening_hours": "Mo-Fr 09:00-13:30,14:00-21:00; Sa,Su 10:00-13:30,14:00-18:30", "operator": "Walgreens", "wheelchair": "yes"}}, {"type": "node", "id": 11958908033, "lat": 47.6589924, "lon": -122.3180513, "tags": {"addr:city": "Seattle", "addr:country": "US", "addr:housenumber": "4245", "addr:postcode": "98105", "addr:state": "WA", "addr:street": "Roosevelt Way Northeast", "amenity": "pharmacy", "branch": "UW Medical Center - Roosevelt", "branch:wikidata": "Q99399795", "check_date": "2024-12-11", "contact:phone": "+1-206-598-7557", "dispensing": "yes", "healthcare": "pharmacy", "internet_access": "wlan", "internet_access:fee": "customers", "level": "0", "lgbtq": "welcome", "name": "Outpatient Pharmacy", "opening_hours": "Mo-Fr 08:00-17:15", "operator": "UW Medicine", "operator:wikidata": "Q98277868", "website": "https://www.uwmedicine.org/locations/uw-roosevelt/outpatient-pharmacy", "wheelchair": "yes"}}, {"type": "node", "id": 12114166832, "lat": 47.6682028, "lon": -122.3740067, "tags": {"addr:city": "Seattle", "addr:housenumber": "1423", "addr:postcode": "98107", "addr:state": "WA", "addr:street": "Northwest Market Street", "amenity": "pharmacy", "brand": "Safeway", "brand:wikidata": "Q1508234", "dispensing": "yes", "healthcare": "pharmacy", "name": "Safeway", "opening_hours": "Mo-Fr 09:00-13:30,14:00-21:00; Sa-Su 10:00-13:30,14:00-18:00", "phone": "+1-206-782-8688", "website": "https://local.pharmacy.safeway.com/safeway/wa/seattle/1423-nw-market-st.html"}}, {"type": "node", "id": 12162811735, "lat": 47.5814478, "lon": -122.3013612}, {"type": "node", "id": 12162811736, "lat": 47.5814619, "lon": -122.301361}, {"type": "node", "id": 12525067480, "lat": 47.7092462, "lon": -122.3255419, "tags": {"addr:housenumber": "302", "addr:street": "Northeast Northgate Way", "amenity": "pharmacy", "brand": "CVS Pharmacy", "brand:wikidata": "Q2078880", "check_date": "2025-01-22", "description": "Inside target", "dispensing": "yes", "drive_through": "no", "healthcare": "pharmacy", "name": "CVS Pharmacy", "opening_hours": "Mo-Fr 09:00-13:30,14:00-20:00; Sa-Su 09:00-13:30,14:00-18:00", "phone": "+1-206-494-0898", "short_name": "CVS", "website": "https://www.target.com/sl/northgate/1284"}}, {"type": "node", "id": 12621314341, "lat": 47.624414, "lon": -122.3381051, "tags": {"addr:city": "Seattle", "addr:housenumber": "951", "addr:postcode": "98109", "addr:state": "WA", "addr:street": "Mercer Street", "amenity": "pharmacy", "brand": "Walgreens", "brand:wikidata": "Q1591889", "dispensing": "yes", "drive_through": "no", "healthcare": "pharmacy", "name": "Walgreens", "ref": "21452"}}, {"type": "node", "id": 12673618668, "lat": 47.6627739, "lon": -122.2836332, "tags": {"addr:housenumber": "4800", "addr:street": "Sand Point Way Northeast", "alt_name": "Seattle Children's Outpatient Pharmacy", "amenity": "pharmacy", "dispensing": "yes", "drive_through": "no", "healthcare": "pharmacy", "name": "Forest Pharmacy", "opening_hours": "Mo-Su 07:00-19:00", "operator": "Seattle Children's Hospital"}}, {"type": "way", "id": 89804432, "nodes": [1040913062, 1040913039, 1040913021, 1040913081, 1040913154, 1040913129, 1040913159, 1040913132, 1040913017, 1040913003, 1040913076, 1040913058, 1040913062], "tags": {"addr:city": "Seattle", "addr:housenumber": "8500", "addr:postcode": "98117", "addr:state": "WA", "addr:street": "15th Avenue Northwest", "amenity": "pharmacy", "brand": "Walgreens", "brand:wikidata": "Q1591889", "building": "yes", "check_date": "2024-09-07", "drive_through": "yes", "healthcare": "pharmacy", "name": "Walgreens", "source": "bing"}}, {"type": "way", "id": 157022610, "nodes": [1692507510, 735984176, 5852813725, 2138369008, 1692507499, 1692507496, 1692507510], "tags": {"addr:city": "Seattle", "addr:housenumber": "5409", "addr:postcode": "98107", "addr:state": "WA", "addr:street": "15th Avenue Northwest", "amenity": "pharmacy", "brand": "Walgreens", "brand:wikidata": "Q1591889", "building": "yes", "dispensing": "yes", "drive_through": "yes", "healthcare": "pharmacy", "name": "Walgreens", "opening_hours": "Mo-Su 06:00-22:00", "phone": "+1-206-781-0056", "source": "King County GIS;https://blue.kingcounty.com/Assessor/eRealProperty/Dashboard.aspx?ParcelNbr=2767701290", "start_date": "1997", "website": "https://www.walgreens.com/locator/walgreens-5409+15th+ave+nw-seattle-wa-98107/id=3604"}}, {"type": "way", "id": 161079842, "nodes": [2373664269, 1730821346, 2373664329, 2373664330, 1730821401, 1730821382, 1730821379, 2373664348, 2373664347, 2373664320, 2373664319, 2373664314, 1730821365, 2373664311, 2373664256, 1730821355, 2373664259, 2373664264, 2373664270, 2373664271, 2373664275, 1730821358, 12162811736, 12162811735, 2373664269], "tags": {"addr:city": "Seattle", "addr:housenumber": "2345", "addr:postcode": "98144", "addr:state": "WA", "addr:street": "Rainier Avenue South", "amenity": "pharmacy", "brand": "Bartell Drugs", "brand:wikidata": "Q4865152", "building": "yes", "healthcare": "pharmacy", "name": "Bartell Drugs", "source": "King County GIS;data.seattle.gov"}}, {"type": "way", "id": 228744749, "nodes": [2374210607, 2374210545, 5659271126, 2374210546, 2374210606, 2374210605, 2374210620, 2374210619, 2374210608, 2374210607], "tags": {"addr:city": "Seattle", "addr:housenumber": "2120", "addr:postcode": "98144", "addr:state": "WA", "addr:street": "Rainier Avenue South", "amenity": "pharmacy", "building": "yes", "healthcare": "pharmacy", "name": "Nguyen Pharmacy", "source": "King County GIS;data.seattle.gov"}}, {"type": "way", "id": 231264472, "nodes": [2396689581, 2396689717, 2396689716, 2396689698, 2396689695, 2396689654, 2396689653, 2396689594, 2396689595, 2396689588, 2396689589, 2396689580, 2396689581], "tags": {"addr:city": "Seattle", "addr:country": "US", "addr:housenumber": "5217", "addr:postcode": "98136", "addr:state": "WA", "addr:street": "California Avenue Southwest", "amenity": "pharmacy", "brand": "Rite Aid", "brand:wikidata": "Q3433273", "building": "retail", "check_date": "2024-06-19", "healthcare": "pharmacy", "name": "Rite Aid", "phone": "+1-206-937-2191", "website": "https://www.riteaid.com/locations/wa/seattle/5217-california-avenue-sw.html"}}, {"type": "way", "id": 236748598, "nodes": [2447312176, 2447312173, 2447312172, 2447312171, 2447312167, 1750019221, 2447312101, 2447312102, 2447312117, 2447312176], "tags": {"addr:city": "Seattle", "addr:housenumber": "2600", "addr:postcode": "98126", "addr:state": "WA", "addr:street": "Southwest Barton Street", "amenity": "pharmacy", "brand": "Rite Aid", "brand:wikidata": "Q3433273", "building": "yes", "check_date": "2024-06-19", "dispensing": "yes", "healthcare": "pharmacy", "name": "Rite Aid", "source": "King County GIS;data.seattle.gov", "website": "https://www.riteaid.com/locations/wa/seattle/2600-sw-barton-street.html", "wheelchair": "yes"}}]}